NORAD_CAT_ID,OBJECT_NAME,OBJECT_TYPE,EPOCH,MEAN_MOTION,ECCENTRICITY,INCLINATION,RA_OF_ASC_NODE,ARG_OF_PERICENTER,MEAN_ANOMALY,BSTAR,MEAN_MOTION_DOT,MEAN_MOTION_DDOT,TLE_LINE0,TLE_LINE1,TLE_LINE2,SEMIMAJOR_AXIS,PERIOD,APOGEE,PERIGEE,DECAYED
53003.0,STARLINK-4255,PAYLOAD,2022-09-26 22:00:00,15.08887375,0.0001496999999999,53.2173,349.4489,60.5263,336.2547,-0.0071346999999999,-0.00112218,0.0,0 STARLINK-4255,1 53003U 22076T   22269.91667824 -.00112218  00000-0 -71347-2 0  9993,2 53003  53.2173 349.4489 0001497  60.5263 336.2547 15.08887375 13138,6917.736,95.435,540.636,538.565,0.0
53003.0,STARLINK-4255,PAYLOAD,2022-09-27 06:00:00,15.08826876,0.0001474,53.2175,347.9484,71.0606,337.3074,0.001191,0.00018711,0.0,0 STARLINK-4255,1 53003U 22076T   22270.25001157  .00018711  00000-0  11910-2 0  9994,2 53003  53.2175 347.9484 0001474  71.0606 337.3074 15.08826876 13182,6917.920999999999,95.438,540.805,538.766,0.0
53003.0,STARLINK-4255,PAYLOAD,2022-09-27 14:00:01,15.08823084,0.0001591,53.2174,346.4537,62.1867,357.7717,0.0017785999999999,0.00028119,0.0,0 STARLINK-4255,1 53003U 22076T   22270.58334491  .00028119  00000-0  17786-2 0  9990,2 53003  53.2174 346.4537 0001591  62.1867 357.7717 15.08823084  1303,6917.932,95.439,540.898,538.696,0.0
53003.0,STARLINK-4255,PAYLOAD,2022-09-27 22:00:01,15.08865282,0.0001494,53.2171,344.956,65.4246,6.1981,-0.00037736,-6.293e-05,0.0,0 STARLINK-4255,1 53003U 22076T   22270.91668981 -.00006293  00000-0 -37736-3 0  9990,2 53003  53.2171 344.9560 0001494  65.4246   6.1981 15.08865282  1302,6917.803000000001,95.436,540.702,538.635,0.0
53003.0,STARLINK-4255,PAYLOAD,2022-09-28 14:00:01,15.08855133,0.0001553,53.2169,341.9645,61.1027,33.7243,-0.0017324,-0.00027765,0.0,0 STARLINK-4255,1 53003U 22076T   22271.58334491 -.00027765  00000-0 -17324-2 0  9997,2 53003  53.2169 341.9645 0001553  61.1027  33.7243 15.08855133 13388,6917.834,95.437,540.773,538.625,0.0
53003.0,STARLINK-4255,PAYLOAD,2022-09-28 22:00:00,15.08825072,0.0001549,53.2166,340.4667,68.4298,37.99800000000001,-0.002776,-0.00044179,0.0,0 STARLINK-4255,1 53003U 22076T   22271.91667824 -.00044179  00000-0 -27760-2 0  9996,2 53003  53.2166 340.4667 0001549  68.4298  37.9980 15.08825072  1300,6917.926,95.438,540.863,538.719,0.0
53003.0,STARLINK-4255,PAYLOAD,2022-09-29 14:00:01,15.08793343,0.0001682,53.2163,337.4754,64.8027,64.7427,0.0028055,0.00044587,0.0,0 STARLINK-4255,1 53003U 22076T   22272.58334491  .00044587  00000-0  28055-2 0  9990,2 53003  53.2163 337.4754 0001682  64.8027  64.7427 15.08793343  1307,6918.023,95.441,541.052,538.724,0.0
53003.0,STARLINK-4255,PAYLOAD,2022-09-29 22:00:00,15.08825266,0.0001592,53.216,335.9775,69.9959,71.1102,0.00019915,2.882e-05,0.0,0 STARLINK-4255,1 53003U 22076T   22272.91667824  .00002882  00000-0  19915-3 0  9994,2 53003  53.2160 335.9775 0001592  69.9959  71.1102 15.08825266 13596,6917.925,95.438,540.8919999999998,538.689,0.0
53003.0,STARLINK-4255,PAYLOAD,2022-09-30 14:00:01,15.08826275,0.0001696999999999,53.2158,332.9861,63.7281,100.5569,0.0032225,0.00051353,0.0,0 STARLINK-4255,1 53003U 22076T   22273.58334491  .00051353  00000-0  32225-2 0  9994,2 53003  53.2158 332.9861 0001697  63.7281 100.5569 15.08826275  1303,6917.922,95.438,540.961,538.613,0.0
53003.0,STARLINK-4255,PAYLOAD,2022-09-30 22:00:00,15.08856677,0.000154,53.2156,331.48800000000006,68.0856,107.8077,-0.0011054,-0.00017845,0.0,0 STARLINK-4255,1 53003U 22076T   22273.91667824 -.00017845  00000-0 -11054-2 0  9997,2 53003  53.2156 331.4880 0001540  68.0856 107.8077 15.08856677 13743,6917.829000000002,95.436,540.76,538.629,0.0
53003.0,STARLINK-4255,PAYLOAD,2022-10-01 14:00:01,15.08847028,0.0001588,53.2157,328.4966,59.9246,139.1832,0.00020699,3.008e-05,0.0,0 STARLINK-4255,1 53003U 22076T   22274.58334491  .00003008  00000-0  20699-3 0  9992,2 53003  53.2157 328.4966 0001588  59.9246 139.1832 15.08847028  1305,6917.859,95.437,540.822,538.625,0.0
53003.0,STARLINK-4255,PAYLOAD,2022-10-01 22:00:00,15.08826178,0.0001336,53.2158,326.9982,61.7661,148.9561,-0.0017132,-0.0002744,0.0,0 STARLINK-4255,1 53003U 22076T   22274.91667824 -.00027440  00000-0 -17132-2 0  9993,2 53003  53.2158 326.9982 0001336  61.7661 148.9561 15.08826178 13897,6917.9230000000025,95.438,540.712,538.863,0.0
53003.0,STARLINK-4255,PAYLOAD,2022-10-02 14:00:01,15.08800273,0.0001503,53.216,324.0071,53.8811,179.9821,0.003941,0.00062925,0.0,0 STARLINK-4255,1 53003U 22076T   22275.58334491  .00062925  00000-0  39410-2 0  9996,2 53003  53.2160 324.0071 0001503  53.8811 179.9821 15.08800273 13995,6918.002,95.44,540.9069999999998,538.827,0.0
53003.0,STARLINK-4255,PAYLOAD,2022-10-02 22:00:00,15.0882956,0.0001369,53.2162,322.5089,59.51300000000001,185.9323,0.001969,0.00031179,0.0,0 STARLINK-4255,1 53003U 22076T   22275.91667824  .00031179  00000-0  19690-2 0  9997,2 53003  53.2162 322.5089 0001369  59.5130 185.9323 15.08829560  1302,6917.9119999999975,95.438,540.724,538.83,0.0
53003.0,STARLINK-4255,PAYLOAD,2022-10-03 06:00:00,15.08881911,0.0001405,53.2163,321.013,60.565,196.4693,-0.0034066,-0.00054158,0.0,0 STARLINK-4255,1 53003U 22076T   22276.25001157 -.00054158  00000-0 -34066-2 0  9994,2 53003  53.2163 321.0130 0001405  60.5650 196.4693 15.08881911 14099,6917.752,95.435,540.589,538.645,0.0
53003.0,STARLINK-4255,PAYLOAD,2022-10-03 14:00:01,15.08825606,0.0001516,53.2163,319.5179,51.2651,217.3957,0.0030432,0.00048459,0.0,0 STARLINK-4255,1 53003U 22076T   22276.58334491  .00048459  00000-0  30432-2 0  9998,2 53003  53.2163 319.5179 0001516  51.2651 217.3957 15.08825606  1300,6917.924,95.438,540.8380000000002,538.741,0.0
53003.0,STARLINK-4255,PAYLOAD,2022-10-03 22:00:00,15.08831513,0.0001414,53.2166,318.0196,58.8762,221.3991,0.0014092,0.00022205,0.0,0 STARLINK-4255,1 53003U 22076T   22276.91667824  .00022205  00000-0  14092-2 0  9999,2 53003  53.2166 318.0196 0001414  58.8762 221.3991 15.08831513 14197,6917.906,95.438,540.75,538.793,0.0
53003.0,STARLINK-4255,PAYLOAD,2022-10-04 14:00:01,15.08832107,0.0001548,53.2164,315.0286,52.0326,251.4431,0.00025487,3.77e-05,0.0,0 STARLINK-4255,1 53003U 22076T   22277.58334491  .00003770  00000-0  25487-3 0  9991,2 53003  53.2164 315.0286 0001548  52.0326 251.4431 15.08832107  1304,6917.905,95.438,540.84,538.6990000000002,0.0
53003.0,STARLINK-4255,PAYLOAD,2022-10-04 22:00:00,15.08799856,0.0001401,53.2166,313.5305,59.9104,255.1618,0.0014142,0.00022266,0.0,0 STARLINK-4255,1 53003U 22076T   22277.91667824  .00022266  00000-0  14142-2 0  9993,2 53003  53.2166 313.5305 0001401  59.9104 255.1618 15.08799856  1300,6918.003000000002,95.44,540.837,538.899,0.0
53003.0,STARLINK-4255,PAYLOAD,2022-10-05 06:00:00,15.08828481,0.0001443999999999,53.2166,312.0349,58.7513,267.8704,-0.00069528,-0.00011333,0.0,0 STARLINK-4255,1 53003U 22076T   22278.25001157 -.00011333  00000-0 -69528-3 0  9996,2 53003  53.2166 312.0349 0001444  58.7513 267.8704 15.08828481 14396,6917.916,95.438,540.78,538.7819999999998,0.0
53003.0,STARLINK-4255,PAYLOAD,2022-10-05 14:00:01,15.08823724,0.0001557,53.2162,310.5395,52.6317,285.6304,0.00092136,0.00014399,0.0,0 STARLINK-4255,1 53003U 22076T   22278.58335648  .00014399  00000-0  92136-3 0  9991,2 53003  53.2162 310.5395 0001557  52.6317 285.6304 15.08823724  1302,6917.93,95.439,540.872,538.7180000000002,0.0
53003.0,STARLINK-4255,PAYLOAD,2022-10-05 22:00:00,15.08798161,0.0001481,53.2162,309.0416,63.1503,286.6422,0.0028828,0.00045838,0.0,0 STARLINK-4255,1 53003U 22076T   22278.91667824  .00045838  00000-0  28828-2 0  9990,2 53003  53.2162 309.0416 0001481  63.1503 286.6422 15.08798161  1307,6918.0080000000025,95.44,540.898,538.849,0.0
53003.0,STARLINK-4255,PAYLOAD,2022-10-06 06:00:00,15.08844569,0.0001554999999999,53.2161,307.5462,61.8888,299.4642,-0.00071823,-0.00011702,0.0,0 STARLINK-4255,1 53003U 22076T   22279.25001157 -.00011702  00000-0 -71823-3 0  9998,2 53003  53.2161 307.5462 0001555  61.8888 299.4642 15.08844569 14543,6917.866,95.437,540.807,538.656,0.0
53003.0,STARLINK-4255,PAYLOAD,2022-10-06 14:00:01,15.0884438,0.0001576999999999,53.2155,306.0505,55.1825,317.7648,0.00014766,2.063e-05,0.0,0 STARLINK-4255,1 53003U 22076T   22279.58334491  .00002063  00000-0  14766-3 0  9995,2 53003  53.2155 306.0505 0001577  55.1825 317.7648 15.08844380  1300,6917.8669999999975,95.437,540.823,538.641,0.0
53003.0,STARLINK-4255,PAYLOAD,2022-10-06 22:42:55,15.08812426,0.0001394,53.2153,304.4186,63.4313,123.0395,0.0037829,0.00060387,0.0,0 STARLINK-4255,1 53003U 22076T   22279.94646991  .00060387  00000-0  37829-2 0  9993,2 53003  53.2153 304.4186 0001394  63.4313 123.0395 15.08812426  1309,6917.965,95.439,540.794,538.865,0.0
53003.0,STARLINK-4255,PAYLOAD,2022-10-07 06:00:00,15.08875866,0.0001458,53.2153,303.0572,60.6817,335.4576,-0.0035540999999999,-0.00056463,0.0,0 STARLINK-4255,1 53003U 22076T   22280.25001157 -.00056463  00000-0 -35541-2 0  9999,2 53003  53.2153 303.0572 0001458  60.6817 335.4576 15.08875866 14695,6917.771,95.435,540.644,538.627,0.0
53003.0,STARLINK-4255,PAYLOAD,2022-10-07 14:00:01,15.08833698,0.000149,53.2152,301.5612,53.6731,354.0796,0.00093297,0.00014589,0.0,0 STARLINK-4255,1 53003U 22076T   22280.58334491  .00014589  00000-0  93297-3 0  9999,2 53003  53.2152 301.5612 0001490  53.6731 354.0796 15.08833698  1307,6917.9,95.438,540.795,538.734,0.0
53003.0,STARLINK-4255,PAYLOAD,2022-10-07 22:00:00,15.08805176,0.0001395,53.2158,300.063,64.6365,354.7232,0.0030472,0.00048496,0.0,0 STARLINK-4255,1 53003U 22076T   22280.91667824  .00048496  00000-0  30472-2 0  9994,2 53003  53.2158 300.0630 0001395  64.6365 354.7232 15.08805176  1308,6917.986999999999,95.44,540.817,538.887,0.0
53003.0,STARLINK-4255,PAYLOAD,2022-10-08 14:00:01,15.08813798,0.0001505,53.2161,297.0718,54.2624,28.2534,0.0016024999999999,0.00025289,0.0,0 STARLINK-4255,1 53003U 22076T   22281.58334491  .00025289  00000-0  16025-2 0  9992,2 53003  53.2161 297.0718 0001505  54.2624  28.2534 15.08813798 14895,6917.96,95.439,540.867,538.784,0.0
